[{"OBJECT_NAME":"SCS-01 B","OBJECT_ID":"2025-100B","EPOCH":"2026-03-09T21:49:11.508672","MEAN_MOTION":15.3317485,"ECCENTRICITY":0.00088698,"INCLINATION":97.3706,"RA_OF_ASC_NODE":145.9041,"ARG_OF_PERICENTER":288.6157,"MEAN_ANOMALY":71.4122,"EPHEMERIS_TYPE":0,"CLASSIFICATION_TYPE":"U","NORAD_CAT_ID":63983,"ELEMENT_SET_NO":999,"REV_AT_EPOCH":4567,"BSTAR":0.00098809397,"MEAN_MOTION_DOT":0.00031724,"MEAN_MOTION_DDOT":0},{"OBJECT_NAME":"STARLINK-35098","OBJECT_ID":"2025-195U","EPOCH":"2026-03-09T21:59:16.754496","MEAN_MOTION":15.30197709,"ECCENTRICITY":0.00010801,"INCLINATION":53.1595,"RA_OF_ASC_NODE":256.7514,"ARG_OF_PERICENTER":97.1483,"MEAN_ANOMALY":262.964,"EPHEMERIS_TYPE":0,"CLASSIFICATION_TYPE":"U","NORAD_CAT_ID":65476,"ELEMENT_SET_NO":999,"REV_AT_EPOCH":3001,"BSTAR":0.0010791254,"MEAN_MOTION_DOT":0.00031736,"MEAN_MOTION_DDOT":0}]
